{
  "type": "FeatureCollection",
  "features": [
    {
      "type": "Feature",
      "properties": {
        "norad_id": 34540,
        "name": "IRIDIUM 33 DEB",
        "group": "iridium-33-debris",
        "lat": 51.237466842486484,
        "lon": -49.8257631571649,
        "alt_km": 639.5962889080329,
        "timestamp": "2025-12-17T04:57:44.746608+00:00",
        "meta_object_name": "IRIDIUM 33 DEB",
        "meta_object_id": "1997-051JH",
        "meta_epoch": "2025-12-16T22:31:00.894720",
        "meta_mean_motion": 14.75409627,
        "meta_eccentricity": 0.00170863,
        "meta_inclination": 86.3099,
        "meta_ra_of_asc_node": 305.6869,
        "meta_arg_of_pericenter": 144.3412,
        "meta_mean_anomaly": 281.7775,
        "meta_ephemeris_type": 0,
        "meta_classification_type": "U",
        "meta_norad_cat_id": 34540,
        "meta_element_set_no": 999,
        "meta_rev_at_epoch": 89083,
        "meta_bstar": 0.0012022226,
        "meta_mean_motion_dot": 8.208e-05,
        "meta_mean_motion_ddot": 0,
        "tle_line1": "1 34540U 97051JH  25350.93820480  .00008208  00000+0  12022-2 0  9993",
        "tle_line2": "2 34540  86.3099 305.6869 0017086 144.3412 281.7775 14.75409627890831"
      },
      "geometry": {
        "type": "Point",
        "coordinates": [
          -49.8257631571649,
          51.237466842486484
        ]
      }
    },
    {
      "type": "Feature",
      "properties": {
        "norad_id": 34648,
        "name": "IRIDIUM 33 DEB",
        "group": "iridium-33-debris",
        "lat": -72.54805200446263,
        "lon": 111.72554846784783,
        "alt_km": 749.1759930732678,
        "timestamp": "2025-12-17T04:57:44.746617+00:00",
        "meta_object_name": "IRIDIUM 33 DEB",
        "meta_object_id": "1997-051JZ",
        "meta_epoch": "2025-12-16T12:26:32.846208",
        "meta_mean_motion": 14.11615527,
        "meta_eccentricity": 0.01816215,
        "meta_inclination": 86.3905,
        "meta_ra_of_asc_node": 280.4208,
        "meta_arg_of_pericenter": 287.0786,
        "meta_mean_anomaly": 71.0574,
        "meta_ephemeris_type": 0,
        "meta_classification_type": "U",
        "meta_norad_cat_id": 34648,
        "meta_element_set_no": 999,
        "meta_rev_at_epoch": 85014,
        "meta_bstar": 0.0054188563,
        "meta_mean_motion_dot": 0.00011523,
        "meta_mean_motion_ddot": 0,
        "tle_line1": "1 34648U 97051JZ  25350.51843572  .00011523  00000+0  54189-2 0  9997",
        "tle_line2": "2 34648  86.3905 280.4208 0181621 287.0786  71.0574 14.11615527850144"
      },
      "geometry": {
        "type": "Point",
        "coordinates": [
          111.72554846784783,
          -72.54805200446263
        ]
      }
    },
    {
      "type": "Feature",
      "properties": {
        "norad_id": 34651,
        "name": "IRIDIUM 33 DEB",
        "group": "iridium-33-debris",
        "lat": -0.9024953190881957,
        "lon": -41.26430551269062,
        "alt_km": 707.6745642015512,
        "timestamp": "2025-12-17T04:57:44.746627+00:00",
        "meta_object_name": "IRIDIUM 33 DEB",
        "meta_object_id": "1997-051KC",
        "meta_epoch": "2025-12-16T21:22:39.844416",
        "meta_mean_motion": 14.25886119,
        "meta_eccentricity": 0.01422439,
        "meta_inclination": 86.2825,
        "meta_ra_of_asc_node": 138.8115,
        "meta_arg_of_pericenter": 190.7823,
        "meta_mean_anomaly": 169.0312,
        "meta_ephemeris_type": 0,
        "meta_classification_type": "U",
        "meta_norad_cat_id": 34651,
        "meta_element_set_no": 999,
        "meta_rev_at_epoch": 85955,
        "meta_bstar": 0.0025009012,
        "meta_mean_motion_dot": 6.641e-05,
        "meta_mean_motion_ddot": 0,
        "tle_line1": "1 34651U 97051KC  25350.89073894  .00006641  00000+0  25009-2 0  9998",
        "tle_line2": "2 34651  86.2825 138.8115 0142243 190.7823 169.0312 14.25886119859554"
      },
      "geometry": {
        "type": "Point",
        "coordinates": [
          -41.26430551269062,
          -0.9024953190881957
        ]
      }
    },
    {
      "type": "Feature",
      "properties": {
        "norad_id": 34652,
        "name": "IRIDIUM 33 DEB",
        "group": "iridium-33-debris",
        "lat": 84.69024125130456,
        "lon": 114.35451650417815,
        "alt_km": 696.898681698015,
        "timestamp": "2025-12-17T04:57:44.746636+00:00",
        "meta_object_name": "IRIDIUM 33 DEB",
        "meta_object_id": "1997-051KD",
        "meta_epoch": "2025-12-16T23:51:48.766752",
        "meta_mean_motion": 14.62098936,
        "meta_eccentricity": 0.00256549,
        "meta_inclination": 86.3313,
        "meta_ra_of_asc_node": 338.1074,
        "meta_arg_of_pericenter": 282.6722,
        "meta_mean_anomaly": 133.581,
        "meta_ephemeris_type": 0,
        "meta_classification_type": "U",
        "meta_norad_cat_id": 34652,
        "meta_element_set_no": 999,
        "meta_rev_at_epoch": 88546,
        "meta_bstar": 0.00074140559,
        "meta_mean_motion_dot": 3.763e-05,
        "meta_mean_motion_ddot": 0,
        "tle_line1": "1 34652U 97051KD  25350.99431443  .00003763  00000+0  74141-3 0  9992",
        "tle_line2": "2 34652  86.3313 338.1074 0025654 282.6722 133.5810 14.62098936885463"
      },
      "geometry": {
        "type": "Point",
        "coordinates": [
          114.35451650417815,
          84.69024125130456
        ]
      }
    },
    {
      "type": "Feature",
      "properties": {
        "norad_id": 34690,
        "name": "IRIDIUM 33 DEB",
        "group": "iridium-33-debris",
        "lat": -24.644060806908342,
        "lon": -143.28453516927806,
        "alt_km": 721.9259540438488,
        "timestamp": "2025-12-17T04:57:44.746645+00:00",
        "meta_object_name": "IRIDIUM 33 DEB",
        "meta_object_id": "1997-051KM",
        "meta_epoch": "2025-12-16T09:55:15.693312",
        "meta_mean_motion": 14.55109734,
        "meta_eccentricity": 0.00103944,
        "meta_inclination": 86.3782,
        "meta_ra_of_asc_node": 35.3951,
        "meta_arg_of_pericenter": 17.6085,
        "meta_mean_anomaly": 353.5681,
        "meta_ephemeris_type": 0,
        "meta_classification_type": "U",
        "meta_norad_cat_id": 34690,
        "meta_element_set_no": 999,
        "meta_rev_at_epoch": 88148,
        "meta_bstar": 0.00032549002,
        "meta_mean_motion_dot": 1.426e-05,
        "meta_mean_motion_ddot": 0,
        "tle_line1": "1 34690U 97051KM  25350.41337608  .00001426  00000+0  32549-3 0  9999",
        "tle_line2": "2 34690  86.3782  35.3951 0010394  17.6085 353.5681 14.55109734881487"
      },
      "geometry": {
        "type": "Point",
        "coordinates": [
          -143.28453516927806,
          -24.644060806908342
        ]
      }
    },
    {
      "type": "Feature",
      "properties": {
        "norad_id": 34693,
        "name": "IRIDIUM 33 DEB",
        "group": "iridium-33-debris",
        "lat": -8.699540098881403,
        "lon": -58.963292196407224,
        "alt_km": 477.82541915147704,
        "timestamp": "2025-12-17T04:57:44.746654+00:00",
        "meta_object_name": "IRIDIUM 33 DEB",
        "meta_object_id": "1997-051KQ",
        "meta_epoch": "2025-12-16T21:25:18.444576",
        "meta_mean_motion": 15.28941995,
        "meta_eccentricity": 0.00125804,
        "meta_inclination": 86.3045,
        "meta_ra_of_asc_node": 301.7597,
        "meta_arg_of_pericenter": 45.7689,
        "meta_mean_anomaly": 17.5251,
        "meta_ephemeris_type": 0,
        "meta_classification_type": "U",
        "meta_norad_cat_id": 34693,
        "meta_element_set_no": 999,
        "meta_rev_at_epoch": 88978,
        "meta_bstar": 0.0037873204,
        "meta_mean_motion_dot": 0.00108025,
        "meta_mean_motion_ddot": 0,
        "tle_line1": "1 34693U 97051KQ  25350.89257459  .00108025  00000+0  37873-2 0  9996",
        "tle_line2": "2 34693  86.3045 301.7597 0012580  45.7689  17.5251 15.28941995889784"
      },
      "geometry": {
        "type": "Point",
        "coordinates": [
          -58.963292196407224,
          -8.699540098881403
        ]
      }
    },
    {
      "type": "Feature",
      "properties": {
        "norad_id": 34696,
        "name": "IRIDIUM 33 DEB",
        "group": "iridium-33-debris",
        "lat": 34.22173479649472,
        "lon": -157.15642673621818,
        "alt_km": 622.1785356172331,
        "timestamp": "2025-12-17T04:57:44.746663+00:00",
        "meta_object_name": "IRIDIUM 33 DEB",
        "meta_object_id": "1997-051KT",
        "meta_epoch": "2025-12-16T02:20:41.724096",
        "meta_mean_motion": 14.6527848,
        "meta_eccentricity": 0.00739247,
        "meta_inclination": 86.1857,
        "meta_ra_of_asc_node": 25.9602,
        "meta_arg_of_pericenter": 156.1552,
        "meta_mean_anomaly": 262.9531,
        "meta_ephemeris_type": 0,
        "meta_classification_type": "U",
        "meta_norad_cat_id": 34696,
        "meta_element_set_no": 999,
        "meta_rev_at_epoch": 86722,
        "meta_bstar": 0.0030139248,
        "meta_mean_motion_dot": 0.00016962,
        "meta_mean_motion_ddot": 0,
        "tle_line1": "1 34696U 97051KT  25350.09770514  .00016962  00000+0  30139-2 0  9999",
        "tle_line2": "2 34696  86.1857  25.9602 0073924 156.1552 262.9531 14.65278480867227"
      },
      "geometry": {
        "type": "Point",
        "coordinates": [
          -157.15642673621818,
          34.22173479649472
        ]
      }
    }
  ]
}